CCSDS_OEM_VERS = 1.0
CREATION_DATE  = 2017-05-11T10:59:51
ORIGINATOR     = GMAT USER

META_START
OBJECT_NAME          = MOPSSat_alt_35785_km_RAAN_0_055
OBJECT_ID            = SatId
CENTER_NAME          = Earth
REF_FRAME            = EME2000
TIME_SYSTEM          = UTC
START_TIME           = 2017-01-01T00:00:00.000
USEABLE_START_TIME   = 2017-01-01T00:00:00.000
USEABLE_STOP_TIME    = 2017-01-02T00:00:00.000
STOP_TIME            = 2017-01-02T00:00:00.000
INTERPOLATION        = Lagrange
INTERPOLATION_DEGREE = 7 
META_STOP


                                                                                   

2017-01-01T19:24:10.000   1.568677478612645e+04  -3.913586379824424e+04   4.193627267542565e-02   2.853932700716879e+00   1.144348629481359e+00  -1.226830426716386e-04
2017-01-01T19:24:20.000   1.571530994011488e+04  -3.912440990623914e+04   4.070922212187485e-02   2.853097744747784e+00   1.146429630264223e+00  -1.227270547647962e-04
2017-01-01T19:24:30.000   1.574383673689122e+04  -3.911293520729671e+04   3.948173172039064e-02   2.852261271205327e+00   1.148510021866642e+00  -1.227710128009769e-04
2017-01-01T19:24:40.000   1.577235516117084e+04  -3.910143970755878e+04   3.825380201654822e-02   2.851423280536823e+00   1.150589803173610e+00  -1.228149167337996e-04
2017-01-01T19:24:50.000   1.580086519770699e+04  -3.908992341316609e+04   3.702543355498714e-02   2.850583773189507e+00   1.152668973072886e+00  -1.228587665169531e-04
2017-01-01T19:25:00.000   1.582936683132388e+04  -3.907838633024316e+04   3.579662687793406e-02   2.849742749609442e+00   1.154747530457400e+00  -1.229025621042409e-04
2017-01-01T19:25:10.000   1.585786004683029e+04  -3.906682846493415e+04   3.456738252894836e-02   2.848900210244111e+00   1.156825474218956e+00  -1.229463034494512e-04
2017-01-01T19:25:20.000   1.588634482939421e+04  -3.905524982324841e+04   3.333770103668201e-02   2.848056155531177e+00   1.158902803275557e+00  -1.229899905069187e-04
2017-01-01T19:25:30.000   1.591482116408870e+04  -3.904365041124698e+04   3.210758293454941e-02   2.847210585912072e+00   1.160979516538276e+00  -1.230336232308424e-04
2017-01-01T19:25:40.000   1.594328903606361e+04  -3.903203023497239e+04   3.087702875329778e-02   2.846363501826880e+00   1.163055612923792e+00  -1.230772015755432e-04
2017-01-01T19:25:50.000   1.597174842987999e+04  -3.902038930072018e+04   2.964603904977467e-02   2.845514903734126e+00   1.165131091305838e+00  -1.231207254944613e-04
2017-01-01T19:26:00.000   1.600019933017573e+04  -3.900872761476746e+04   2.841461437816387e-02   2.844664792090999e+00   1.167205950563754e+00  -1.231641949411592e-04
2017-01-01T19:26:10.000   1.602864172149374e+04  -3.899704518344286e+04   2.718275529740515e-02   2.843813167358440e+00   1.169280189569951e+00  -1.232076098690639e-04
2017-01-01T19:26:20.000   1.605707558873703e+04  -3.898534201294222e+04   2.595046235157378e-02   2.842960029987712e+00   1.171353807223099e+00  -1.232509702321484e-04
2017-01-01T19:26:30.000   1.608550091679300e+04  -3.897361810948028e+04   2.471773608606345e-02   2.842105380431456e+00   1.173426802420731e+00  -1.232942759843720e-04
2017-01-01T19:26:40.000   1.611391769062011e+04  -3.896187347925579e+04   2.348457704385654e-02   2.841249219141150e+00   1.175499174065561e+00  -1.233375270798066e-04
2017-01-01T19:26:50.000   1.614232589521381e+04  -3.895010812846378e+04   2.225098576694418e-02   2.840391546568002e+00   1.177570921062999e+00  -1.233807234726009e-04
2017-01-01T19:27:00.000   1.617072551559110e+04  -3.893832206330332e+04   2.101696279704121e-02   2.839532363163515e+00   1.179642042320026e+00  -1.234238651169406e-04
2017-01-01T19:27:10.000   1.619911653675662e+04  -3.892651528999166e+04   1.978250867706228e-02   2.838671669380515e+00   1.181712536742722e+00  -1.234669519670034e-04
2017-01-01T19:27:20.000   1.622749894368618e+04  -3.891468781476961e+04   1.854762395178766e-02   2.837809465673551e+00   1.183782403235062e+00  -1.235099839769139e-04
2017-01-01T19:27:30.000   1.625587272129402e+04  -3.890283964391684e+04   1.731230916934725e-02   2.836945752500003e+00   1.185851640696532e+00  -1.235529611007146e-04
2017-01-01T19:27:40.000   1.628423785451875e+04  -3.889097078371538e+04   1.607656487745513e-02   2.836080530317428e+00   1.187920248028392e+00  -1.235958832924886e-04
2017-01-01T19:27:50.000   1.631259432795042e+04  -3.887908124060801e+04   1.484039163973439e-02   2.835213799595097e+00   1.189988224106484e+00  -1.236387505058169e-04
2017-01-01T19:28:00.000   1.634094212628266e+04  -3.886717102100671e+04   1.360379001594391e-02   2.834345560800043e+00   1.192055567814202e+00  -1.236815626944412e-04
2017-01-01T19:28:10.000   1.636928123414444e+04  -3.885524013136369e+04   1.236676056932635e-02   2.833475814402225e+00   1.194122278030223e+00  -1.237243198120168e-04
2017-01-01T19:28:20.000   1.639761163675207e+04  -3.884328857789712e+04   1.112930383815821e-02   2.832604560854549e+00   1.196188353676059e+00  -1.237670218130784e-04
2017-01-01T19:28:30.000   1.642593331925879e+04  -3.883131636686458e+04   9.891420364123656e-03   2.831731800612790e+00   1.198253793668618e+00  -1.238096686520763e-04
2017-01-01T19:28:40.000   1.645424626690232e+04  -3.881932350450130e+04   8.653110685893273e-03   2.830857534131099e+00   1.200318596930971e+00  -1.238522602835939e-04
2017-01-01T19:28:50.000   1.648255046463695e+04  -3.880730999717282e+04   7.414375355102412e-03   2.829981761873124e+00   1.202382762365519e+00  -1.238947966618054e-04
2017-01-01T19:29:00.000   1.651084589740708e+04  -3.879527585126249e+04   6.175214924504758e-03   2.829104484303813e+00   1.204446288873938e+00  -1.239372777408759e-04
2017-01-01T19:29:10.000   1.653913255014669e+04  -3.878322107317037e+04   4.935629947948806e-03   2.828225701889334e+00   1.206509175357146e+00  -1.239797034749649e-04
2017-01-01T19:29:20.000   1.656741040750857e+04  -3.877114566943182e+04   3.695620992352771e-03   2.827345415105721e+00   1.208571420695552e+00  -1.240220738178095e-04
2017-01-01T19:29:30.000   1.659567945422951e+04  -3.875904964655888e+04   2.455188621597061e-03   2.826463624427303e+00   1.210633023775691e+00  -1.240643887232820e-04
2017-01-01T19:29:40.000   1.662393967498634e+04  -3.874693301110236e+04   1.214333402862304e-03   2.825580330331243e+00   1.212693983479724e+00  -1.241066481451715e-04
2017-01-01T19:29:50.000   1.665219105503371e+04  -3.873479576937849e+04  -2.694412136982097e-05   2.824695533277603e+00   1.214754298731949e+00  -1.241488520381480e-04
2017-01-01T19:30:00.000   1.668043357956617e+04  -3.872263792774214e+04  -1.268643405321863e-03   2.823809233729257e+00   1.216813968452286e+00  -1.241910003567981e-04
2017-01-01T19:30:10.000   1.670866723386264e+04  -3.871045949252542e+04  -2.510763906242167e-03   2.822921432147429e+00   1.218872991566801e+00  -1.242330930558449e-04
2017-01-01T19:30:20.000   1.673689200291950e+04  -3.869826047019246e+04  -3.753305068376455e-03   2.822032129002963e+00   1.220931366980955e+00  -1.242751300895881e-04
2017-01-01T19:30:30.000   1.676510787172327e+04  -3.868604086722533e+04  -4.996266334851620e-03   2.821141324768015e+00   1.222989093599492e+00  -1.243171114123235e-04
2017-01-01T19:30:40.000   1.679331482525025e+04  -3.867380069012286e+04  -6.239647147698979e-03   2.820249019915962e+00   1.225046170326409e+00  -1.243590369783376e-04
2017-01-01T19:30:50.000   1.682151284819637e+04  -3.866153994552110e+04  -7.483446935843490e-03   2.819355214930182e+00   1.227102596045254e+00  -1.244009067415157e-04
2017-01-01T19:31:00.000   1.684970192534146e+04  -3.864925864003206e+04  -8.727665131259848e-03   2.818459910292311e+00   1.229158369645695e+00  -1.244427206558746e-04
2017-01-01T19:31:10.000   1.687788204140290e+04  -3.863695678030828e+04  -9.972301162494191e-03   2.817563106486929e+00   1.231213490012842e+00  -1.244844786753469e-04
2017-01-01T19:31:20.000   1.690605318168223e+04  -3.862463437276037e+04  -1.121735448322086e-02   2.816664803980990e+00   1.233267956074409e+00  -1.245261807547420e-04
2017-01-01T19:31:30.000   1.693421533141679e+04  -3.861229142383991e+04  -1.246282454361737e-02   2.815765003244429e+00   1.235321766753426e+00  -1.245678268487809e-04
2017-01-01T19:31:40.000   1.696236847594727e+04  -3.859992793996658e+04  -1.370871079774968e-02   2.814863704744860e+00   1.237374920980458e+00  -1.246094169123474e-04
2017-01-01T19:31:50.000   1.699051260026708e+04  -3.858754392772328e+04  -1.495501268372589e-02   2.813960908961801e+00   1.239427417660746e+00  -1.246509508998084e-04
2017-01-01T19:32:00.000   1.701864768939438e+04  -3.857513939369556e+04  -1.620172964006635e-02   2.813056616374952e+00   1.241479255701331e+00  -1.246924287655778e-04
2017-01-01T19:32:10.000   1.704677372828897e+04  -3.856271434450724e+04  -1.744886110205241e-02   2.812150827466814e+00   1.243530434005003e+00  -1.247338504639899e-04
2017-01-01T19:32:20.000   1.707489070187552e+04  -3.855026878681212e+04  -1.869640650269141e-02   2.811243542722074e+00   1.245580951471982e+00  -1.247752159493507e-04
2017-01-01T19:32:30.000   1.710299859507099e+04  -3.853780272728038e+04  -1.994436527398465e-02   2.810334762626608e+00   1.247630807001931e+00  -1.248165251759611e-04
2017-01-01T19:32:40.000   1.713109739279486e+04  -3.852531617259407e+04  -2.119273684737417e-02   2.809424487667168e+00   1.249679999494694e+00  -1.248577780981371e-04
2017-01-01T19:32:50.000   1.715918708006995e+04  -3.851280912940342e+04  -2.244152065819353e-02   2.808512718328176e+00   1.251728527857651e+00  -1.248989746703425e-04
2017-01-01T19:33:00.000   1.718726764195505e+04  -3.850028160435549e+04  -2.369071614270896e-02   2.807599455093833e+00   1.253776391000802e+00  -1.249401148471050e-04
2017-01-01T19:33:10.000   1.721533906354495e+04  -3.848773360409447e+04  -2.494032273811581e-02   2.806684698448126e+00   1.255823587836776e+00  -1.249811985830108e-04
